ONEWEB-0584             
1 54651U 22166K   26074.22326827  .00000191  00000+0  43210-3 0  9992
2 54651  87.9159 262.7201 0001301  88.8541 271.2742 13.21827335159107
ONEWEB-0585             
1 54652U 22166L   26074.24795014  .00000108  00000+0  23078-3 0  9991
2 54652  87.9163 262.6997 0001796  91.1509 268.9831 13.21824931159115
ONEWEB-0586             
1 54653U 22166M   26074.26112687  .00000043  00000+0  72059-4 0  9995
2 54653  87.9164 262.7227 0001517  96.7620 263.3687 13.21825405159115
ONEWEB-0587             
1 54654U 22166N   26074.04389140  .00000081  00000+0  16347-3 0  9991
2 54654  87.9173 262.7304 0002043  92.8601 267.2766 13.21824459159246
ONEWEB-0589             
1 54655U 22166P   26074.25781626  .00000080  00000+0  16242-3 0  9993
2 54655  87.9158 262.7121 0000810  86.1384 273.9842 13.21824386159137
ONEWEB-0590             
1 54656U 22166Q   26074.28236806  .00000083  00000+0  16991-3 0  9996
2 54656  87.9170 262.6878 0001694  77.1338 282.9986 13.21825176159126
ONEWEB-0591             
1 54657U 22166R   26074.21833348  .00000031  00000+0  42824-4 0  9992
2 54657  87.9163 262.7220 0001637  90.1349 269.9972 13.21824845159149
ONEWEB-0592             
1 54658U 22166S   26074.22162013  .00000110  00000+0  23569-3 0  9990
2 54658  87.9169 262.6923 0001620  91.3749 268.7571 13.21824834159021
ONEWEB-0593             
1 54659U 22166T   26074.24465176  .00000100  00000+0  21053-3 0  9994
2 54659  87.9165 262.7063 0001591  97.6645 262.4670 13.21827404159134
ONEWEB-0594             
1 54660U 22166U   26074.26439878  .00000025  00000+0  30034-4 0  9994
2 54660  87.9165 262.7202 0001772  94.2514 265.8823 13.21823593159154
ONEWEB-0595             
1 54661U 22166V   26074.24136455  .00000107  00000+0  22793-3 0  9991
2 54661  87.9174 262.6979 0001846  89.5154 270.6192 13.21823830159128
ONEWEB-0596             
1 54662U 22166W   26074.21503596  .00000093  00000+0  19272-3 0  9995
2 54662  87.9162 262.7204 0001719  90.3503 269.7828 13.21824893159120
ONEWEB-0597             
1 54663U 22166X   26074.04554104  .00000032  00000+0  47152-4 0  9990
2 54663  87.9161 262.7590 0001534  92.6762 267.4547 13.21827278159106
ONEWEB-0600             
1 54664U 22166Y   26074.25453246  .00000082  00000+0  16665-3 0  9998
2 54664  87.9165 262.7083 0001648 102.3845 257.7473 13.21824599159108
ONEWEB-0601             
1 54665U 22166Z   26074.24630518  .00000089  00000+0  18461-3 0  9990
2 54665  87.9163 262.7273 0001361  92.9436 267.1853 13.21826529159292
ONEWEB-0602             
1 54666U 22166AA  26074.05953350  .00000074  00000+0  14766-3 0  9990
2 54666  87.9162 262.7702 0001652 103.9108 256.2209 13.21824647159115
ONEWEB-0603             
1 54667U 22166AB  26074.21668191  .00000081  00000+0  16565-3 0  9992
2 54667  87.9172 262.6855 0001507  93.9578 266.1728 13.21824293159060
