[{"OBJECT_NAME":"ONEWEB-0584","OBJECT_ID":"2022-166K","EPOCH":"2026-03-15T05:21:30.378528","MEAN_MOTION":13.21827335,"ECCENTRICITY":0.00013014,"INCLINATION":87.9159,"RA_OF_ASC_NODE":262.7201,"ARG_OF_PERICENTER":88.8541,"MEAN_ANOMALY":271.2742,"EPHEMERIS_TYPE":0,"CLASSIFICATION_TYPE":"U","NORAD_CAT_ID":54651,"ELEMENT_SET_NO":999,"REV_AT_EPOCH":15910,"BSTAR":0.00043210336,"MEAN_MOTION_DOT":1.91e-6,"MEAN_MOTION_DDOT":0},{"OBJECT_NAME":"ONEWEB-0585","OBJECT_ID":"2022-166L","EPOCH":"2026-03-15T05:57:02.892096","MEAN_MOTION":13.21824931,"ECCENTRICITY":0.0001796,"INCLINATION":87.9163,"RA_OF_ASC_NODE":262.6997,"ARG_OF_PERICENTER":91.1509,"MEAN_ANOMALY":268.9831,"EPHEMERIS_TYPE":0,"CLASSIFICATION_TYPE":"U","NORAD_CAT_ID":54652,"ELEMENT_SET_NO":999,"REV_AT_EPOCH":15911,"BSTAR":0.00023077507,"MEAN_MOTION_DOT":1.08e-6,"MEAN_MOTION_DDOT":0},{"OBJECT_NAME":"ONEWEB-0586","OBJECT_ID":"2022-166M","EPOCH":"2026-03-15T06:16:01.361568","MEAN_MOTION":13.21825405,"ECCENTRICITY":0.00015177,"INCLINATION":87.9164,"RA_OF_ASC_NODE":262.7227,"ARG_OF_PERICENTER":96.762,"MEAN_ANOMALY":263.3687,"EPHEMERIS_TYPE":0,"CLASSIFICATION_TYPE":"U","NORAD_CAT_ID":54653,"ELEMENT_SET_NO":999,"REV_AT_EPOCH":15911,"BSTAR":7.2059356e-5,"MEAN_MOTION_DOT":4.3e-7,"MEAN_MOTION_DDOT":0},{"OBJECT_NAME":"ONEWEB-0587","OBJECT_ID":"2022-166N","EPOCH":"2026-03-15T01:03:12.216960","MEAN_MOTION":13.21824459,"ECCENTRICITY":0.00020434,"INCLINATION":87.9173,"RA_OF_ASC_NODE":262.7304,"ARG_OF_PERICENTER":92.8601,"MEAN_ANOMALY":267.2766,"EPHEMERIS_TYPE":0,"CLASSIFICATION_TYPE":"U","NORAD_CAT_ID":54654,"ELEMENT_SET_NO":999,"REV_AT_EPOCH":15924,"BSTAR":0.00016347173,"MEAN_MOTION_DOT":8.1e-7,"MEAN_MOTION_DDOT":0},{"OBJECT_NAME":"ONEWEB-0589","OBJECT_ID":"2022-166P","EPOCH":"2026-03-15T06:11:15.324864","MEAN_MOTION":13.21824386,"ECCENTRICITY":8.103e-5,"INCLINATION":87.9158,"RA_OF_ASC_NODE":262.7121,"ARG_OF_PERICENTER":86.1384,"MEAN_ANOMALY":273.9842,"EPHEMERIS_TYPE":0,"CLASSIFICATION_TYPE":"U","NORAD_CAT_ID":54655,"ELEMENT_SET_NO":999,"REV_AT_EPOCH":15913,"BSTAR":0.00016242049,"MEAN_MOTION_DOT":8.0e-7,"MEAN_MOTION_DDOT":0},{"OBJECT_NAME":"ONEWEB-0590","OBJECT_ID":"2022-166Q","EPOCH":"2026-03-15T06:46:36.600384","MEAN_MOTION":13.21825176,"ECCENTRICITY":0.00016948,"INCLINATION":87.917,"RA_OF_ASC_NODE":262.6878,"ARG_OF_PERICENTER":77.1338,"MEAN_ANOMALY":282.9986,"EPHEMERIS_TYPE":0,"CLASSIFICATION_TYPE":"U","NORAD_CAT_ID":54656,"ELEMENT_SET_NO":999,"REV_AT_EPOCH":15912,"BSTAR":0.00016990677,"MEAN_MOTION_DOT":8.3e-7,"MEAN_MOTION_DDOT":0},{"OBJECT_NAME":"ONEWEB-0591","OBJECT_ID":"2022-166R","EPOCH":"2026-03-15T05:14:24.012672","MEAN_MOTION":13.21824845,"ECCENTRICITY":0.00016376,"INCLINATION":87.9163,"RA_OF_ASC_NODE":262.722,"ARG_OF_PERICENTER":90.1349,"MEAN_ANOMALY":269.9972,"EPHEMERIS_TYPE":0,"CLASSIFICATION_TYPE":"U","NORAD_CAT_ID":54657,"ELEMENT_SET_NO":999,"REV_AT_EPOCH":15914,"BSTAR":4.2823786e-5,"MEAN_MOTION_DOT":3.1e-7,"MEAN_MOTION_DDOT":0},{"OBJECT_NAME":"ONEWEB-0592","OBJECT_ID":"2022-166S","EPOCH":"2026-03-15T05:19:07.979232","MEAN_MOTION":13.21824834,"ECCENTRICITY":0.00016204,"INCLINATION":87.9169,"RA_OF_ASC_NODE":262.6923,"ARG_OF_PERICENTER":91.3749,"MEAN_ANOMALY":268.7571,"EPHEMERIS_TYPE":0,"CLASSIFICATION_TYPE":"U","NORAD_CAT_ID":54658,"ELEMENT_SET_NO":999,"REV_AT_EPOCH":15902,"BSTAR":0.00023569141,"MEAN_MOTION_DOT":1.1e-6,"MEAN_MOTION_DDOT":0},{"OBJECT_NAME":"ONEWEB-0593","OBJECT_ID":"2022-166T","EPOCH":"2026-03-15T05:52:17.912064","MEAN_MOTION":13.21827404,"ECCENTRICITY":0.00015915,"INCLINATION":87.9165,"RA_OF_ASC_NODE":262.7063,"ARG_OF_PERICENTER":97.6645,"MEAN_ANOMALY":262.467,"EPHEMERIS_TYPE":0,"CLASSIFICATION_TYPE":"U","NORAD_CAT_ID":54659,"ELEMENT_SET_NO":999,"REV_AT_EPOCH":15913,"BSTAR":0.00021052981,"MEAN_MOTION_DOT":1.0e-6,"MEAN_MOTION_DDOT":0},{"OBJECT_NAME":"ONEWEB-0594","OBJECT_ID":"2022-166U","EPOCH":"2026-03-15T06:20:44.054592","MEAN_MOTION":13.21823593,"ECCENTRICITY":0.00017728,"INCLINATION":87.9165,"RA_OF_ASC_NODE":262.7202,"ARG_OF_PERICENTER":94.2514,"MEAN_ANOMALY":265.8823,"EPHEMERIS_TYPE":0,"CLASSIFICATION_TYPE":"U","NORAD_CAT_ID":54660,"ELEMENT_SET_NO":999,"REV_AT_EPOCH":15915,"BSTAR":3.003352e-5,"MEAN_MOTION_DOT":2.5e-7,"MEAN_MOTION_DDOT":0},{"OBJECT_NAME":"ONEWEB-0595","OBJECT_ID":"2022-166V","EPOCH":"2026-03-15T05:47:33.897120","MEAN_MOTION":13.2182383,"ECCENTRICITY":0.00018468,"INCLINATION":87.9174,"RA_OF_ASC_NODE":262.6979,"ARG_OF_PERICENTER":89.5154,"MEAN_ANOMALY":270.6192,"EPHEMERIS_TYPE":0,"CLASSIFICATION_TYPE":"U","NORAD_CAT_ID":54661,"ELEMENT_SET_NO":999,"REV_AT_EPOCH":15912,"BSTAR":0.00022792816,"MEAN_MOTION_DOT":1.07e-6,"MEAN_MOTION_DDOT":0},{"OBJECT_NAME":"ONEWEB-0596","OBJECT_ID":"2022-166W","EPOCH":"2026-03-15T05:09:39.106944","MEAN_MOTION":13.21824893,"ECCENTRICITY":0.00017193,"INCLINATION":87.9162,"RA_OF_ASC_NODE":262.7204,"ARG_OF_PERICENTER":90.3503,"MEAN_ANOMALY":269.7828,"EPHEMERIS_TYPE":0,"CLASSIFICATION_TYPE":"U","NORAD_CAT_ID":54662,"ELEMENT_SET_NO":999,"REV_AT_EPOCH":15912,"BSTAR":0.00019271905,"MEAN_MOTION_DOT":9.3e-7,"MEAN_MOTION_DDOT":0},{"OBJECT_NAME":"ONEWEB-0597","OBJECT_ID":"2022-166X","EPOCH":"2026-03-15T01:05:34.745856","MEAN_MOTION":13.21827278,"ECCENTRICITY":0.0001534,"INCLINATION":87.9161,"RA_OF_ASC_NODE":262.759,"ARG_OF_PERICENTER":92.6762,"MEAN_ANOMALY":267.4547,"EPHEMERIS_TYPE":0,"CLASSIFICATION_TYPE":"U","NORAD_CAT_ID":54663,"ELEMENT_SET_NO":999,"REV_AT_EPOCH":15910,"BSTAR":4.7151794e-5,"MEAN_MOTION_DOT":3.2e-7,"MEAN_MOTION_DDOT":0},{"OBJECT_NAME":"ONEWEB-0600","OBJECT_ID":"2022-166Y","EPOCH":"2026-03-15T06:06:31.604544","MEAN_MOTION":13.21824599,"ECCENTRICITY":0.0001648,"INCLINATION":87.9165,"RA_OF_ASC_NODE":262.7083,"ARG_OF_PERICENTER":102.3845,"MEAN_ANOMALY":257.7473,"EPHEMERIS_TYPE":0,"CLASSIFICATION_TYPE":"U","NORAD_CAT_ID":54664,"ELEMENT_SET_NO":999,"REV_AT_EPOCH":15910,"BSTAR":0.00016664763,"MEAN_MOTION_DOT":8.2e-7,"MEAN_MOTION_DDOT":0},{"OBJECT_NAME":"ONEWEB-0601","OBJECT_ID":"2022-166Z","EPOCH":"2026-03-15T05:54:40.767552","MEAN_MOTION":13.21826529,"ECCENTRICITY":0.00013618,"INCLINATION":87.9163,"RA_OF_ASC_NODE":262.7273,"ARG_OF_PERICENTER":92.9436,"MEAN_ANOMALY":267.1853,"EPHEMERIS_TYPE":0,"CLASSIFICATION_TYPE":"U","NORAD_CAT_ID":54665,"ELEMENT_SET_NO":999,"REV_AT_EPOCH":15929,"BSTAR":0.00018461336,"MEAN_MOTION_DOT":8.9e-7,"MEAN_MOTION_DDOT":0},{"OBJECT_NAME":"ONEWEB-0602","OBJECT_ID":"2022-166AA","EPOCH":"2026-03-15T01:25:43.694400","MEAN_MOTION":13.21824647,"ECCENTRICITY":0.00016523,"INCLINATION":87.9162,"RA_OF_ASC_NODE":262.7702,"ARG_OF_PERICENTER":103.9108,"MEAN_ANOMALY":256.2209,"EPHEMERIS_TYPE":0,"CLASSIFICATION_TYPE":"U","NORAD_CAT_ID":54666,"ELEMENT_SET_NO":999,"REV_AT_EPOCH":15911,"BSTAR":0.00014766231,"MEAN_MOTION_DOT":7.4e-7,"MEAN_MOTION_DDOT":0},{"OBJECT_NAME":"ONEWEB-0603","OBJECT_ID":"2022-166AB","EPOCH":"2026-03-15T05:12:01.317024","MEAN_MOTION":13.21824293,"ECCENTRICITY":0.0001507,"INCLINATION":87.9172,"RA_OF_ASC_NODE":262.6855,"ARG_OF_PERICENTER":93.9578,"MEAN_ANOMALY":266.1728,"EPHEMERIS_TYPE":0,"CLASSIFICATION_TYPE":"U","NORAD_CAT_ID":54667,"ELEMENT_SET_NO":999,"REV_AT_EPOCH":15906,"BSTAR":0.00016564595,"MEAN_MOTION_DOT":8.1e-7,"MEAN_MOTION_DDOT":0}]
